{"fetched_at":"2026-07-11T06:35:06.838Z","source":"https://celestrak.org/NORAD/elements/gp.php?GROUP=oneweb&FORMAT=JSON","constellation":"oneweb","records":[{"OBJECT_NAME":"ONEWEB-0683","OBJECT_ID":"2023-068K","EPOCH":"2026-07-10T04:14:39.172992","CLASSIFICATION_TYPE":"U","MEAN_MOTION":13.15548173,"ECCENTRICITY":0.00022712,"INCLINATION":87.8999,"RA_OF_ASC_NODE":254.6154,"ARG_OF_PERICENTER":94.3894,"MEAN_ANOMALY":265.7496,"EPHEMERIS_TYPE":0,"NORAD_CAT_ID":56719,"ELEMENT_SET_NO":999,"REV_AT_EPOCH":15244,"BSTAR":0.00025098303,"MEAN_MOTION_DOT":0.00000107,"MEAN_MOTION_DDOT":0},{"OBJECT_NAME":"ONEWEB-0684","OBJECT_ID":"2023-068L","EPOCH":"2026-07-10T04:26:03.627744","CLASSIFICATION_TYPE":"U","MEAN_MOTION":13.15549554,"ECCENTRICITY":0.00028482,"INCLINATION":87.8997,"RA_OF_ASC_NODE":254.603,"ARG_OF_PERICENTER":125.2295,"MEAN_ANOMALY":234.9102,"EPHEMERIS_TYPE":0,"NORAD_CAT_ID":56720,"ELEMENT_SET_NO":999,"REV_AT_EPOCH":15227,"BSTAR":0.000082673166,"MEAN_MOTION_DOT":4.4e-7,"MEAN_MOTION_DDOT":0},{"OBJECT_NAME":"ONEWEB-0686","OBJECT_ID":"2023-068M","EPOCH":"2026-07-10T01:54:01.496736","CLASSIFICATION_TYPE":"U","MEAN_MOTION":13.16593703,"ECCENTRICITY":0.00024451,"INCLINATION":87.9062,"RA_OF_ASC_NODE":224.2457,"ARG_OF_PERICENTER":101.4777,"MEAN_ANOMALY":258.6629,"EPHEMERIS_TYPE":0,"NORAD_CAT_ID":56721,"ELEMENT_SET_NO":999,"REV_AT_EPOCH":15472,"BSTAR":0.00051647859,"MEAN_MOTION_DOT":0.0000021,"MEAN_MOTION_DDOT":0},{"OBJECT_NAME":"ONEWEB-0694","OBJECT_ID":"2023-068N","EPOCH":"2026-07-09T11:27:39.474144","CLASSIFICATION_TYPE":"U","MEAN_MOTION":13.16593329,"ECCENTRICITY":0.00023866,"INCLINATION":87.9091,"RA_OF_ASC_NODE":224.3329,"ARG_OF_PERICENTER":84.5682,"MEAN_ANOMALY":275.5721,"EPHEMERIS_TYPE":0,"NORAD_CAT_ID":56722,"ELEMENT_SET_NO":999,"REV_AT_EPOCH":15470,"BSTAR":0.00010206144,"MEAN_MOTION_DOT":5.2e-7,"MEAN_MOTION_DDOT":0},{"OBJECT_NAME":"ONEWEB-0696","OBJECT_ID":"2023-068P","EPOCH":"2026-07-10T03:24:27.039168","CLASSIFICATION_TYPE":"U","MEAN_MOTION":13.15550086,"ECCENTRICITY":0.00019612,"INCLINATION":87.8993,"RA_OF_ASC_NODE":254.6497,"ARG_OF_PERICENTER":112.6766,"MEAN_ANOMALY":247.4571,"EPHEMERIS_TYPE":0,"NORAD_CAT_ID":56723,"ELEMENT_SET_NO":999,"REV_AT_EPOCH":15238,"BSTAR":-0.00033168955,"MEAN_MOTION_DOT":-0.00000112,"MEAN_MOTION_DDOT":0},{"OBJECT_NAME":"ONEWEB-0703","OBJECT_ID":"2023-068Q","EPOCH":"2026-07-10T03:38:08.252160","CLASSIFICATION_TYPE":"U","MEAN_MOTION":13.15547539,"ECCENTRICITY":0.0001562,"INCLINATION":87.8987,"RA_OF_ASC_NODE":254.6277,"ARG_OF_PERICENTER":120.8098,"MEAN_ANOMALY":239.3186,"EPHEMERIS_TYPE":0,"NORAD_CAT_ID":56724,"ELEMENT_SET_NO":999,"REV_AT_EPOCH":15227,"BSTAR":0.00011437802,"MEAN_MOTION_DOT":5.6e-7,"MEAN_MOTION_DDOT":0},{"OBJECT_NAME":"ONEWEB-0721","OBJECT_ID":"2023-068R","EPOCH":"2026-07-10T10:37:46.624800","CLASSIFICATION_TYPE":"U","MEAN_MOTION":13.2247075,"ECCENTRICITY":0.00017914,"INCLINATION":86.6751,"RA_OF_ASC_NODE":78.0928,"ARG_OF_PERICENTER":78.8143,"MEAN_ANOMALY":281.3191,"EPHEMERIS_TYPE":0,"NORAD_CAT_ID":56725,"ELEMENT_SET_NO":999,"REV_AT_EPOCH":16101,"BSTAR":-0.000061885804,"MEAN_MOTION_DOT":-1.1e-7,"MEAN_MOTION_DDOT":0},{"OBJECT_NAME":"ONEWEB-0015","OBJECT_ID":"2024-188A","EPOCH":"2026-07-10T12:05:18.903264","CLASSIFICATION_TYPE":"U","MEAN_MOTION":13.11416616,"ECCENTRICITY":0.000163,"INCLINATION":87.8876,"RA_OF_ASC_NODE":16.4493,"ARG_OF_PERICENTER":72.1366,"MEAN_ANOMALY":287.994,"EPHEMERIS_TYPE":0,"NORAD_CAT_ID":61594,"ELEMENT_SET_NO":999,"REV_AT_EPOCH":8751,"BSTAR":0.0015671,"MEAN_MOTION_DOT":0.00000568,"MEAN_MOTION_DDOT":0},{"OBJECT_NAME":"ONEWEB-0687","OBJECT_ID":"2024-188B","EPOCH":"2026-07-09T11:31:18.934464","CLASSIFICATION_TYPE":"U","MEAN_MOTION":13.17649562,"ECCENTRICITY":0.00020543,"INCLINATION":87.9128,"RA_OF_ASC_NODE":1.4402,"ARG_OF_PERICENTER":77.2742,"MEAN_ANOMALY":282.8619,"EPHEMERIS_TYPE":0,"NORAD_CAT_ID":61595,"ELEMENT_SET_NO":999,"REV_AT_EPOCH":8883,"BSTAR":0.000089078304,"MEAN_MOTION_DOT":4.7e-7,"MEAN_MOTION_DDOT":0},{"OBJECT_NAME":"ONEWEB-0688","OBJECT_ID":"2024-188C","EPOCH":"2026-07-10T10:04:47.113536","CLASSIFICATION_TYPE":"U","MEAN_MOTION":13.17650555,"ECCENTRICITY":0.00014777,"INCLINATION":87.9131,"RA_OF_ASC_NODE":1.253,"ARG_OF_PERICENTER":49.9009,"MEAN_ANOMALY":310.2252,"EPHEMERIS_TYPE":0,"NORAD_CAT_ID":61596,"ELEMENT_SET_NO":999,"REV_AT_EPOCH":8895,"BSTAR":0.000056181876,"MEAN_MOTION_DOT":3.5e-7,"MEAN_MOTION_DDOT":0},{"OBJECT_NAME":"ONEWEB-0689","OBJECT_ID":"2024-188D","EPOCH":"2026-07-10T11:04:15.091392","CLASSIFICATION_TYPE":"U","MEAN_MOTION":13.11415969,"ECCENTRICITY":0.0002145,"INCLINATION":87.8889,"RA_OF_ASC_NODE":16.4192,"ARG_OF_PERICENTER":85.6409,"MEAN_ANOMALY":274.4964,"EPHEMERIS_TYPE":0,"NORAD_CAT_ID":61597,"ELEMENT_SET_NO":999,"REV_AT_EPOCH":8750,"BSTAR":-0.0013330386,"MEAN_MOTION_DOT":-0.0000046,"MEAN_MOTION_DDOT":0},{"OBJECT_NAME":"ONEWEB-0690","OBJECT_ID":"2024-188E","EPOCH":"2026-07-10T11:18:54.599328","CLASSIFICATION_TYPE":"U","MEAN_MOTION":13.1141748,"ECCENTRICITY":0.00014212,"INCLINATION":87.8884,"RA_OF_ASC_NODE":16.4287,"ARG_OF_PERICENTER":104.8962,"MEAN_ANOMALY":255.2323,"EPHEMERIS_TYPE":0,"NORAD_CAT_ID":61598,"ELEMENT_SET_NO":999,"REV_AT_EPOCH":8768,"BSTAR":-0.0012035376,"MEAN_MOTION_DOT":-0.00000414,"MEAN_MOTION_DDOT":0},{"OBJECT_NAME":"ONEWEB-0691","OBJECT_ID":"2024-188F","EPOCH":"2026-07-10T11:11:34.950336","CLASSIFICATION_TYPE":"U","MEAN_MOTION":13.11416158,"ECCENTRICITY":0.00017715,"INCLINATION":87.8898,"RA_OF_ASC_NODE":16.3395,"ARG_OF_PERICENTER":77.0368,"MEAN_ANOMALY":283.0957,"EPHEMERIS_TYPE":0,"NORAD_CAT_ID":61599,"ELEMENT_SET_NO":999,"REV_AT_EPOCH":8753,"BSTAR":-0.0013901888,"MEAN_MOTION_DOT":-0.0000048,"MEAN_MOTION_DDOT":0},{"OBJECT_NAME":"ONEWEB-0692","OBJECT_ID":"2024-188G","EPOCH":"2026-07-10T11:40:53.442624","CLASSIFICATION_TYPE":"U","MEAN_MOTION":13.11419346,"ECCENTRICITY":0.0002541,"INCLINATION":87.8877,"RA_OF_ASC_NODE":16.4444,"ARG_OF_PERICENTER":98.7567,"MEAN_ANOMALY":261.3849,"EPHEMERIS_TYPE":0,"NORAD_CAT_ID":61600,"ELEMENT_SET_NO":999,"REV_AT_EPOCH":8752,"BSTAR":0.00054174,"MEAN_MOTION_DOT":0.00000205,"MEAN_MOTION_DDOT":0},{"OBJECT_NAME":"ONEWEB-0693","OBJECT_ID":"2024-188H","EPOCH":"2026-07-10T10:21:48.658752","CLASSIFICATION_TYPE":"U","MEAN_MOTION":13.17649765,"ECCENTRICITY":0.00012489,"INCLINATION":87.9124,"RA_OF_ASC_NODE":1.2694,"ARG_OF_PERICENTER":111.53,"MEAN_ANOMALY":248.5965,"EPHEMERIS_TYPE":0,"NORAD_CAT_ID":61601,"ELEMENT_SET_NO":999,"REV_AT_EPOCH":8894,"BSTAR":0.000034556165,"MEAN_MOTION_DOT":2.6e-7,"MEAN_MOTION_DDOT":0},{"OBJECT_NAME":"ONEWEB-0695","OBJECT_ID":"2024-188J","EPOCH":"2026-07-10T11:06:42.087168","CLASSIFICATION_TYPE":"U","MEAN_MOTION":13.11415989,"ECCENTRICITY":0.00023561,"INCLINATION":87.8879,"RA_OF_ASC_NODE":16.4409,"ARG_OF_PERICENTER":89.8082,"MEAN_ANOMALY":270.3316,"EPHEMERIS_TYPE":0,"NORAD_CAT_ID":61602,"ELEMENT_SET_NO":999,"REV_AT_EPOCH":8751,"BSTAR":-0.0013431063,"MEAN_MOTION_DOT":-0.00000463,"MEAN_MOTION_DDOT":0}]}
