ONEWEB-0683             
1 56719U 23068K   26191.17684228  .00000107  00000+0  25098-3 0  9998
2 56719  87.8999 254.6154 0002271  94.3894 265.7496 13.15548173152449
ONEWEB-0684             
1 56720U 23068L   26191.18476421  .00000044  00000+0  82673-4 0  9998
2 56720  87.8997 254.6030 0002848 125.2295 234.9102 13.15549554152278
ONEWEB-0686             
1 56721U 23068M   26191.07918399  .00000210  00000+0  51648-3 0  9994
2 56721  87.9062 224.2457 0002445 101.4777 258.6629 13.16593703154728
ONEWEB-0694             
1 56722U 23068N   26190.47754021  .00000052  00000+0  10206-3 0  9997
2 56722  87.9091 224.3329 0002386  84.5682 275.5721 13.16593329154703
ONEWEB-0696             
1 56723U 23068P   26191.14197962 -.00000112  00000+0 -33169-3 0  9990
2 56723  87.8993 254.6497 0001961 112.6766 247.4571 13.15550086152385
ONEWEB-0703             
1 56724U 23068Q   26191.15148440  .00000056  00000+0  11438-3 0  9999
2 56724  87.8987 254.6277 0001562 120.8098 239.3186 13.15547539152270
ONEWEB-0721             
1 56725U 23068R   26191.44290075 -.00000011  00000+0 -61886-4 0  9990
2 56725  86.6751  78.0928 0001791  78.8143 281.3191 13.22470750161018
ONEWEB-0015             
1 61594U 24188A   26191.50369101  .00000568  00000+0  15671-2 0  9992
2 61594  87.8876  16.4493 0001630  72.1366 287.9940 13.11416616 87513
ONEWEB-0687             
1 61595U 24188B   26190.48008026  .00000047  00000+0  89078-4 0  9991
2 61595  87.9128   1.4402 0002054  77.2742 282.8619 13.17649562 88831
ONEWEB-0688             
1 61596U 24188C   26191.41998974  .00000035  00000+0  56182-4 0  9993
2 61596  87.9131   1.2530 0001477  49.9009 310.2252 13.17650555 88952
ONEWEB-0689             
1 61597U 24188D   26191.46128578 -.00000460  00000+0 -13330-2 0  9994
2 61597  87.8889  16.4192 0002145  85.6409 274.4964 13.11415969 87501
ONEWEB-0690             
1 61598U 24188E   26191.47146527 -.00000414  00000+0 -12035-2 0  9990
2 61598  87.8884  16.4287 0001421 104.8962 255.2323 13.11417480 87681
ONEWEB-0691             
1 61599U 24188F   26191.46637674 -.00000480  00000+0 -13902-2 0  9995
2 61599  87.8898  16.3395 0001771  77.0368 283.0957 13.11416158 87532
ONEWEB-0692             
1 61600U 24188G   26191.48672966  .00000205  00000+0  54174-3 0  9993
2 61600  87.8877  16.4444 0002541  98.7567 261.3849 13.11419346 87525
ONEWEB-0693             
1 61601U 24188H   26191.43181318  .00000026  00000+0  34556-4 0  9999
2 61601  87.9124   1.2694 0001248 111.5300 248.5965 13.17649765 88942
ONEWEB-0695             
1 61602U 24188J   26191.46298712 -.00000463  00000+0 -13431-2 0  9994
2 61602  87.8879  16.4409 0002356  89.8082 270.3316 13.11415989 87514
